METHANESAT              
1 59101U 24043D   25247.06596664  .00004225  00000+0  38373-3 0  9990
2 59101  97.8090  12.8044 0009871 243.8578 116.1627 14.95778148 81841
GOSAT-GW (IBUKI GW)     
1 64694U 25141A   25246.82923067  .00001689  00000+0  30596-3 0  9997
2 64694  98.0268 184.2373 0001403  86.0823 274.0543 14.67575194  9842
GHGSAT-C1               
1 46278U 20061G   25247.27723322  .00021584  00000+0  34524-3 0  9994
2 46278  97.2443 321.6253 0002419  51.8014 308.3457 15.53160964278855
GHGSAT-C12              
1 64529U 25135B   25247.22556022  .00005521  00000+0  27894-3 0  9991
2 64529  97.4531   0.5435 0006659  91.0234 269.1763 15.17462789 11410
GHGSAT-C13              
1 64548U 25135W   25247.04352614  .00005693  00000+0  28031-3 0  9997
2 64548  97.4554   0.5008 0002371  63.6694 296.4784 15.18369605 11391
GHGSAT-C2               
1 47509U 21006DA  25247.10232504  .00009363  00000+0  29336-3 0  9997
2 47509  97.2617 294.3390 0007457 112.8916 247.3115 15.33268087255941
GHGSAT-C3               
1 52737U 22057F   25247.29208911  .00008770  00000+0  31071-3 0  9998
2 52737  97.6221  18.9922 0007630  60.3646 299.8352 15.29334818181760
GHGSAT-C4               
1 52746U 22057Q   25247.31054894  .00009403  00000+0  33300-3 0  9991
2 52746  97.6150  18.1273 0007648  47.2788 312.9095 15.29324557181773
GHGSAT-C5               
1 52744U 22057N   25247.26173084  .00009378  00000+0  33218-3 0  9995
2 52744  97.6309  20.2028 0008571  56.3938 303.8119 15.29313622181769
GHGSAT-C6               
1 56204U 23054AC  25247.26623664  .00016183  00000+0  36418-3 0  9999
2 56204  97.3213 148.7311 0009018  19.0527 341.1056 15.43341821134214
GHGSAT-C7               
1 56209U 23054AH  25247.23644541  .00012614  00000+0  29367-3 0  9998
2 56209  97.3173 148.1745 0008913  11.2070 348.9374 15.42383033134206
GHGSAT-C8               
1 56186U 23054J   25247.24053925  .00015132  00000+0  34070-3 0  9998
2 56186  97.3181 148.1743 0007297  42.7794 317.4020 15.43356787134197
SENTINEL-5P             
1 42969U 17064A   25247.10029715  .00000143  00000+0  88803-4 0  9991
2 42969  98.7610 186.6527 0001083  74.1601 285.9694 14.19543468408975
ENMAP                   
1 52159U 22033C   25247.22355072  .00001000  00000+0  15627-3 0  9992
2 52159  97.9780 328.5757 0001282  91.0310 269.1046 14.74967893184502
PRISMA                  
1 44072U 19015A   25247.25491434  .00001584  00000+0  19814-3 0  9998
2 44072  97.8701 321.1349 0001425  93.4788 266.6589 14.83674288349655
SENTINEL-2A             
1 40697U 15028A   25247.27060940  .00000261  00000+0  11637-3 0  9999
2 40697  98.5642 321.2143 0001137  96.6918 263.4394 14.30821849532842
SENTINEL-2B             
1 42063U 17013A   25247.26344531  .00000256  00000+0  11410-3 0  9997
2 42063  98.5641 321.1507 0001221  93.0696 267.0627 14.30825222443750
SENTINEL-2C             
1 60989U 24157A   25247.22869426  .00000232  00000+0  10499-3 0  9992
2 60989  98.5631 321.1861 0001198  90.9197 269.2123 14.30824025 52092
LANDSAT 8               
1 39084U 13008A   25247.22279722  .00000727  00000+0  17136-3 0  9995
2 39084  98.2194 316.6990 0001211  93.4990 266.6347 14.57107349656251
LANDSAT 9               
1 49260U 21088A   25247.18851204  .00000735  00000+0  17315-3 0  9993
2 49260  98.2213 316.6762 0001205  97.0081 263.1254 14.57102394209350
